{"type":"FeatureCollection","metadata":{"title":"Pampanga and Angeles City approximate administrative areas","source":"geoBoundaries gbOpen PHL ADM3; source agencies NAMRIA, PSA and OCHA Philippines","sourceUrl":"https://github.com/wmgeolab/geoBoundaries/raw/9469f09/releaseData/gbOpen/PHL/ADM3/geoBoundaries-PHL-ADM3_simplified.geojson","sourceRevision":"wmgeolab/geoBoundaries@9469f09","psgcSourceUrl":"https://psa.gov.ph/classification/psgc/citimuni/0305400000","psgcCrosswalkAsOf":"2026-06-30","boundaryYearReported":"2020","license":"CC BY 3.0 IGO","licenseUrl":"https://creativecommons.org/licenses/by/3.0/igo/","modifications":"Extracted 22 reviewed city/municipality features, replaced source properties with a current application crosswalk, and used the source's web-simplified geometry.","disclaimer":"Approximate administrative areas for property discovery; not cadastral or legal boundaries."},"features":[{"type":"Feature","properties":{"name":"Angeles City","filterValue":"Angeles City","psgcCode":"0330100000","scope":"angeles","sourceId":"30758251B17687282333707"},"geometry":{"type":"Polygon","coordinates":[[[120.623465527,15.175674680000043],[120.61709718400004,15.173902696000027],[120.609015053,15.175279928000066],[120.60576683600004,15.173845823000022],[120.59924771500005,15.175549020000062],[120.59312980800007,15.173830976000033],[120.5914718470001,15.172001068000043],[120.58261167100011,15.17037166800003],[120.58112222300008,15.18134615300005],[120.57951642300009,15.183021979000046],[120.57945826500008,15.193532864000076],[120.57036624400007,15.222545479000075],[120.56575091400009,15.221293505000062],[120.56381292900005,15.217085667000049],[120.55899929200007,15.215938350000044],[120.55313223600001,15.216929271000026],[120.54828063000002,15.212575319000052],[120.5477783550001,15.210251063000044],[120.54422408200003,15.209776845000022],[120.54272360400012,15.211445388000072],[120.53598042300007,15.208357528000022],[120.53211898300003,15.209252947000039],[120.52394512600006,15.207024671000056],[120.50966037700005,15.19831991600006],[120.49883525500002,15.187920923000036],[120.49607669600005,15.187657204000061],[120.49362311700008,15.189267592000022],[120.49244337300001,15.187693393000075],[120.48932852500002,15.188433099000065],[120.48398661100009,15.182744611000032],[120.4795273530001,15.182162395000034],[120.47811933500009,15.176563754000028],[120.44977598600008,15.175672598000062],[120.44950805200006,15.151067770000054],[120.46726020500012,15.144220507000057],[120.4883803780001,15.14548979400007],[120.50958880500002,15.142361865000055],[120.51282331000004,15.142718392000063],[120.51439425600006,15.144657006000045],[120.52003332100003,15.142792473000043],[120.52251984700001,15.144251050000037],[120.53546223700005,15.140307934000077],[120.53477374400006,15.136533970000073],[120.53787621400011,15.134111493000034],[120.54831996900009,15.139480751000065],[120.56368840100004,15.133714328000053],[120.56314046000011,15.132592354000053],[120.5702180400001,15.129759041000057],[120.57091751000007,15.130856915000038],[120.57850673900009,15.125823901000047],[120.57946329700007,15.126417944000025],[120.5828635370001,15.122727734000023],[120.57990229000006,15.120504822000044],[120.58145035400003,15.118813572000022],[120.58019926400004,15.116147779000073],[120.58821833500008,15.114600056000029],[120.59218632000011,15.109915340000043],[120.59723459500003,15.108419555000069],[120.59416299400004,15.116526148000048],[120.60058322900011,15.119668199000046],[120.59866345800003,15.122023396000031],[120.60454576500001,15.124638545000039],[120.61357625900007,15.13246954300007],[120.61492129500004,15.13146424000007],[120.61832552600004,15.135982581000064],[120.62867474000006,15.129305749000025],[120.63240987800009,15.135962923000022],[120.63655236400007,15.150397248000047],[120.63718774900008,15.158138846000043],[120.64109516600001,15.16329236200005],[120.63316922800004,15.169649969000034],[120.63953720000006,15.173347049000029],[120.64265713300006,15.178686990000074],[120.63961488400003,15.18162051400003],[120.63096638400009,15.177474545000052],[120.623465527,15.175674680000043]]]}},{"type":"Feature","properties":{"name":"Apalit","filterValue":"Apalit","psgcCode":"0305402000","scope":"pampanga","sourceId":"30758251B27786389641785"},"geometry":{"type":"Polygon","coordinates":[[[120.87263100700011,14.981723423000062],[120.86452817000009,14.984858315000054],[120.84339127500004,14.981569808000074],[120.84081275800008,14.979112420000035],[120.83754826200004,14.979708320000043],[120.83559215500009,14.977842894000048],[120.82319704800011,14.978747055000042],[120.81889166100007,14.977838432000055],[120.79894143000001,14.981811017000041],[120.79387747700002,14.980981576000033],[120.78885717800006,14.98202929000007],[120.78337716500005,14.980548071000044],[120.78153266100003,14.980946154000037],[120.78243878600006,14.983213807000027],[120.77925948900008,14.983704528000032],[120.76884105900001,14.982536811000045],[120.76655554900003,14.980268230000036],[120.76295798600006,14.979870382000058],[120.76137505800011,14.982579135000037],[120.75682030200005,14.978706421000027],[120.755535871,14.980695524000055],[120.75217643000008,14.978606654000032],[120.74813139200012,14.978946113000063],[120.74746128100003,14.977357906000066],[120.74179774800007,14.975535770000022],[120.73971458200003,14.968684352000025],[120.74035460400012,14.964898860000062],[120.73586226300006,14.961577667000029],[120.73852535100002,14.954936850000024],[120.73605296800008,14.948868791000052],[120.73396705800008,14.947060029000056],[120.7317790400001,14.948620815000027],[120.73067044400011,14.947920649000025],[120.73080656800005,14.944818128000065],[120.7270590070001,14.940848019000043],[120.733424624,14.930607142000042],[120.73333087200001,14.928257064000036],[120.74333233400012,14.930981861000078],[120.74580771700005,14.92968963900006],[120.75233278900009,14.930478785000048],[120.77207023500011,14.924057166000068],[120.79374105600004,14.937171343000045],[120.82079303800003,14.951110005000032],[120.82315083300011,14.953539040000067],[120.82603448800012,14.953494921000072],[120.82971367000005,14.956703081000057],[120.832955319,14.956994027000064],[120.83547130200009,14.954899917000034],[120.838583405,14.954657003000023],[120.84643456100002,14.954945294000026],[120.84601146200009,14.957105999000078],[120.84911058500006,14.957067304000077],[120.85594885100011,14.960118113000021],[120.85167469700002,14.970742273000042],[120.85375960600004,14.971497959000033],[120.85222080200003,14.973840105000022],[120.85649547100002,14.975277843000072],[120.85629099500011,14.976220701000045],[120.86474149300011,14.977814275000071],[120.86530618300003,14.979973322000035],[120.87212038700011,14.98010381000006],[120.87263100700011,14.981723423000062]]]}},{"type":"Feature","properties":{"name":"Arayat","filterValue":"Arayat","psgcCode":"0305403000","scope":"pampanga","sourceId":"30758251B65285968216492"},"geometry":{"type":"Polygon","coordinates":[[[120.86542324400011,15.176232549000076],[120.86424573600004,15.179652358000055],[120.85422720400004,15.180437055000027],[120.84990421500004,15.182665057000065],[120.83818354700009,15.201553705000038],[120.83282201000009,15.202452157000039],[120.82797087900008,15.206087594000053],[120.8192242450001,15.206533828000033],[120.81682082100008,15.209341830000028],[120.8115965720001,15.209684582000023],[120.8097505720001,15.211809839000068],[120.80708863200005,15.210428895000064],[120.79903492500011,15.212797379000051],[120.79029425400006,15.212334999000063],[120.78390515500007,15.217823353000028],[120.77988816100003,15.218350601000054],[120.77669923000008,15.222966344000042],[120.78032558400002,15.231624434000025],[120.77998689300011,15.23406693000004],[120.77632569700006,15.236854169000026],[120.7760537050001,15.23929995900005],[120.77377109100007,15.240828471000043],[120.77227603200004,15.247636759000045],[120.76840120200006,15.250841152000078],[120.77328915600003,15.257936572000062],[120.77085417800004,15.261710828000048],[120.77221544400004,15.26456016800006],[120.77076961700004,15.267591357000072],[120.75508926600003,15.266119971000023],[120.74503291400003,15.263005959000054],[120.74470085900009,15.258151816000066],[120.74215275600011,15.256829392000043],[120.73623272800012,15.24793846800003],[120.73233051700004,15.247131681000042],[120.73492880600008,15.245450649000077],[120.7334404830001,15.245024657000044],[120.73825717600005,15.234279275000063],[120.73265349100006,15.235608354000021],[120.72812743700001,15.232950196000047],[120.72252587100002,15.212476837000054],[120.71750688700001,15.210060289000069],[120.71505666100006,15.203710452000053],[120.6997137190001,15.196647642000073],[120.69390162200011,15.190098232000025],[120.68548333100011,15.196800283000073],[120.68007010300005,15.197781305000035],[120.676784956,15.201782747000038],[120.66725063800004,15.199328165000054],[120.66440349800007,15.200170455000034],[120.65932628400003,15.198062608000043],[120.65236924200008,15.190830671000072],[120.64721445400005,15.188716495000051],[120.66767088000006,15.175691657000073],[120.67013182100004,15.168617176000055],[120.68432484300001,15.15059836000006],[120.6929473140001,15.150559529000077],[120.69914621400005,15.150202297000021],[120.69979836400012,15.151780117000044],[120.70729403700011,15.148413627000025],[120.71334888500007,15.141869093000025],[120.71611759500001,15.141268335000063],[120.72237660200005,15.135327425000071],[120.74447778700005,15.129786111000044],[120.77841169300007,15.11818317600006],[120.78121043100009,15.117150282000068],[120.78558225300003,15.112461848000066],[120.78974277200007,15.114062808000028],[120.7976633620001,15.123077022000075],[120.79901800500011,15.129297360000066],[120.80131107800003,15.128729552000038],[120.81342826100001,15.134405288000039],[120.843156453,15.136496282000053],[120.84155020900005,15.138922921000074],[120.85676072600006,15.14181429100006],[120.8560837230001,15.14342051400007],[120.8581147320001,15.148517949000052],[120.85565893700004,15.149765759000047],[120.85255932500002,15.154468275000056],[120.85459894000007,15.161626142000046],[120.85368296200011,15.162719406000065],[120.8547860760001,15.164896086000056],[120.85784918600007,15.165851461000045],[120.85994707200007,15.170510147000073],[120.86203510900009,15.170884417000025],[120.86542324400011,15.176232549000076]]]}},{"type":"Feature","properties":{"name":"Bacolor","filterValue":"Bacolor","psgcCode":"0305404000","scope":"pampanga","sourceId":"30758251B55823807082743"},"geometry":{"type":"Polygon","coordinates":[[[120.59723459500003,15.108419555000069],[120.59740947000012,15.106252700000027],[120.59602877100008,15.105534417000058],[120.59450441600006,15.106651745000022],[120.59348285900012,15.104792192000048],[120.59564193300002,15.102054947000056],[120.5943532020001,15.100834044000067],[120.59620716600011,15.099522703000048],[120.59584541700008,15.094571261000056],[120.59065748500007,15.092823585000076],[120.57620417700002,15.102246280000031],[120.57265237800004,15.098555801000032],[120.565498165,15.102192959000035],[120.5615441010001,15.088275256000031],[120.55837438700007,15.085201108000035],[120.56103104500005,15.081838073000029],[120.5599452990001,15.080542488000049],[120.5607215230001,15.078441360000056],[120.56525078800007,15.078401430000042],[120.56995430500001,15.073985298000025],[120.59341805500003,15.064430486000049],[120.59346202300003,15.061156260000075],[120.58580701400001,15.050473787000044],[120.59305677900011,15.044932896000034],[120.60327750700003,15.01902401600006],[120.61220871600005,15.016679289000024],[120.61822977600002,15.012171500000022],[120.61982243900002,15.01489050500004],[120.62259883700006,15.01475419600007],[120.6241628030001,15.012350854000033],[120.6256765500001,15.013161533000073],[120.63008719900006,15.007831745000033],[120.62533876200007,15.000655600000073],[120.63021117300002,14.997653141000058],[120.63248935400009,14.989422717000025],[120.63763315500012,14.985336403000076],[120.64472987700003,14.99035101100003],[120.65580929300006,14.98277310800006],[120.66107724200003,14.96755458900003],[120.6719741600001,14.96734411500006],[120.6776426020001,14.97072982700007],[120.68316641700005,14.97978570500004],[120.69350778600005,14.985078773000055],[120.69445625500009,14.988023615000031],[120.69116795800005,14.993133460000024],[120.69342931900007,14.996453651000024],[120.69634489600003,15.00128275700007],[120.69519187300011,15.005025381000053],[120.69297350000011,15.007321467000054],[120.68984617300009,15.004483438000022],[120.68766280400007,15.005537460000028],[120.68704691800008,15.00412663000003],[120.68269862500006,15.004471842000044],[120.68115554000008,15.005666014000042],[120.68082757000002,15.007961563000038],[120.68324685800008,15.010394105000046],[120.68279146700002,15.013740760000076],[120.67904175500007,15.01420347000004],[120.67721481600006,15.017281861000072],[120.67433461600001,15.016710910000029],[120.67401965900001,15.021767486000044],[120.66800903800004,15.027055349000022],[120.66637108200007,15.03352833100007],[120.65959956600011,15.040513437000072],[120.65426540300007,15.042747932000054],[120.65388486400002,15.047260043000051],[120.64680858200006,15.045005685000035],[120.64252588800002,15.054849967000052],[120.63866757500011,15.056363993000048],[120.63329419800004,15.061571823000065],[120.63463395100007,15.065163940000048],[120.63127400400003,15.068222181000067],[120.63031832400009,15.066467578000072],[120.62632252600008,15.071210225000073],[120.60895791900009,15.082882877000031],[120.60573229800002,15.089062692000027],[120.60913067800004,15.101343326000062],[120.603497,15.117654063000032],[120.60058322900011,15.119668199000046],[120.59416299400004,15.116526148000048],[120.59723459500003,15.108419555000069]]]}},{"type":"Feature","properties":{"name":"Candaba","filterValue":"Candaba","psgcCode":"0305405000","scope":"pampanga","sourceId":"30758251B67025420220537"},"geometry":{"type":"Polygon","coordinates":[[[120.78974277200007,15.114062808000028],[120.79191206000007,15.104579345000047],[120.7947554650001,15.103920947000063],[120.7969363840001,15.078988135000031],[120.81139234600005,15.066856019000056],[120.81695197800002,15.065926219000062],[120.81842691500003,15.064284913000051],[120.82120080400011,15.067383568000025],[120.82519352300005,15.067398852000053],[120.8267933080001,15.045039518000067],[120.83057467900005,15.024691375000032],[120.83709795300001,15.024967089000029],[120.8354554020001,15.021224420000067],[120.83744992800007,15.02060846300003],[120.84132165500012,15.013111391000052],[120.84315192600002,15.013287379000076],[120.8411104700001,15.016091448000054],[120.84346283700006,15.018496612000035],[120.84474168100007,15.013539628000046],[120.84962240300001,15.014783274000024],[120.85215151000011,15.013404459000071],[120.8550159780001,15.014480613000046],[120.85532721800007,15.017223750000028],[120.85636644500005,15.01477075200006],[120.85787517000006,15.01597878800004],[120.86095592400011,15.01552511500006],[120.86240246200009,15.018983061000029],[120.865045903,15.012799295000036],[120.86283910100008,15.00966020800007],[120.86341735400003,15.008137869000052],[120.86783095800001,15.008067062000066],[120.876870585,15.01422722600006],[120.87985681200007,15.01334577800003],[120.8930820060001,15.015760345000047],[120.89044110100008,15.030866263000064],[120.89191458900007,15.032226405000074],[120.90099537100002,15.025432197000043],[120.90125509400002,15.022753797000064],[120.90334911600007,15.022331746000077],[120.90508601800002,15.024295906000077],[120.9074343530001,15.022834961000058],[120.91190376400004,15.022824139000022],[120.91376209600003,15.024651363000032],[120.91171771000006,15.034560421000037],[120.91249670500008,15.037010250000037],[120.91594417700003,15.038132046000044],[120.91588945500007,15.03996522600005],[120.91970633300002,15.03852323700005],[120.9202338230001,15.039390206000064],[120.92234472700011,15.037216482000076],[120.92344106100006,15.039034956000023],[120.92392291600004,15.036806563000027],[120.926543035,15.035363432000054],[120.92860424100002,15.035878718000049],[120.929088,15.040030491000039],[120.93108212300001,15.039452406000066],[120.93077540400009,15.04113895100005],[120.92733762500006,15.040616895000028],[120.92674742200006,15.042479143000037],[120.9186423760001,15.047806672000036],[120.9173272920001,15.050382497000044],[120.91414283300003,15.051175895000029],[120.91280598700007,15.055573676000051],[120.90766918300005,15.054577236000057],[120.91037207200009,15.059135535000053],[120.90678954500004,15.060389046000068],[120.89808489900008,15.072300916000074],[120.90273443800004,15.085797942000056],[120.91190708500005,15.087427736000052],[120.91585361200009,15.086269370000025],[120.917591162,15.08424896300005],[120.92406427900005,15.088145417000021],[120.92892247500004,15.087451389000023],[120.93093337700009,15.089480086000037],[120.9332823950001,15.089088583000034],[120.93356712400009,15.097203372000024],[120.93830075100004,15.102292911000063],[120.93854988900011,15.106777400000055],[120.9373041980001,15.108325616000059],[120.94233648300008,15.109984591000057],[120.94225392200008,15.112628537000035],[120.94508221600006,15.11460938700003],[120.94378342000005,15.11797709800004],[120.94536873000004,15.11795204200007],[120.94576515100005,15.119389710000064],[120.94512232800002,15.123425603000044],[120.95144930900005,15.127781338000034],[120.95164971800011,15.132220903000075],[120.94835297100008,15.130526232000022],[120.94853832000001,15.135935509000035],[120.94350694400009,15.139146056000072],[120.94236432800005,15.142196759000058],[120.94046981000008,15.141467968000029],[120.94017877200008,15.143102256000077],[120.93795675800004,15.144016063000038],[120.93588375200011,15.143130324000026],[120.93350921800004,15.148586098000067],[120.92967415700002,15.148501293000038],[120.92127848400003,15.155285676000062],[120.92278612400003,15.156680244000029],[120.9219663450001,15.159949939000057],[120.9199404530001,15.160289158000069],[120.91997814400008,15.164322097000024],[120.91862860200001,15.16558051800007],[120.9188935950001,15.167347136000046],[120.9214318810001,15.167561829000022],[120.92102533200011,15.169070013000066],[120.91557604600007,15.175589763000062],[120.91771968500007,15.178323680000062],[120.92065614600006,15.178870505000077],[120.92049020200011,15.18148147100004],[120.92876773100011,15.18131754500007],[120.9294976540001,15.186629227000026],[120.93073179400005,15.186784534000026],[120.93034308100005,15.190703018000022],[120.9324332760001,15.193066286000033],[120.93230875900008,15.196237003000022],[120.9308315830001,15.196247916000061],[120.92931009000006,15.199636775000045],[120.93341741300003,15.200785508000024],[120.93177915100011,15.208392079000078],[120.92942231000006,15.207952639000041],[120.92865891600002,15.216318620000038],[120.91136578500004,15.211102288000063],[120.90578094700004,15.212241002000042],[120.9028033400001,15.213529743000038],[120.90328894400011,15.211955208000063],[120.9015378260001,15.210807416000023],[120.90228830500007,15.203523354000026],[120.90358325000011,15.202831736000064],[120.90081677800003,15.200300708000043],[120.90011753200008,15.192896222000059],[120.8986957730001,15.191424135000034],[120.8955502880001,15.191990323000027],[120.89203992700004,15.18741049700003],[120.89522700900011,15.181834277000064],[120.8917699320001,15.18662348600003],[120.890312246,15.18523474500006],[120.88623466500007,15.184968816000037],[120.88459969300004,15.180487416000062],[120.8818714570001,15.181501887000024],[120.87874925100004,15.178350133000038],[120.87703548500008,15.180083598000067],[120.87817799600009,15.181945102000043],[120.87454363000006,15.182181484000068],[120.87384433500006,15.179768422000052],[120.86973720600008,15.17999495500004],[120.86988494500008,15.175661294000065],[120.86542324400011,15.176232549000076],[120.86203510900009,15.170884417000025],[120.85994707200007,15.170510147000073],[120.85784918600007,15.165851461000045],[120.8547860760001,15.164896086000056],[120.85368296200011,15.162719406000065],[120.85459894000007,15.161626142000046],[120.85255932500002,15.154468275000056],[120.85565893700004,15.149765759000047],[120.8581147320001,15.148517949000052],[120.8560837230001,15.14342051400007],[120.85676072600006,15.14181429100006],[120.84155020900005,15.138922921000074],[120.843156453,15.136496282000053],[120.81342826100001,15.134405288000039],[120.80131107800003,15.128729552000038],[120.79901800500011,15.129297360000066],[120.7976633620001,15.123077022000075],[120.78974277200007,15.114062808000028]]]}},{"type":"Feature","properties":{"name":"Floridablanca","filterValue":"Floridablanca","psgcCode":"0305406000","scope":"pampanga","sourceId":"30758251B62487244382534"},"geometry":{"type":"Polygon","coordinates":[[[120.47934569400002,14.890787504000059],[120.49085503200001,14.88988196200006],[120.49497620200009,14.892299187000049],[120.49213368200003,14.900741410000023],[120.5027967200001,14.896076247000053],[120.50646428700009,14.901117191000026],[120.505351958,14.905845283000076],[120.5071165600001,14.906510247000028],[120.5051653160001,14.907705364000037],[120.50541543700001,14.909411570000032],[120.50113333200011,14.910404909000022],[120.50249422800005,14.914895869000077],[120.4994885100001,14.917134469000075],[120.51242337300005,14.926168122000036],[120.51277570600007,14.929133655000044],[120.5267699210001,14.944552443000077],[120.52557462700008,14.94953872700006],[120.52752679600007,14.954990480000049],[120.53230979300008,14.95039422700006],[120.5424327390001,14.94995212300006],[120.54358919800006,14.95458478200004],[120.54185505200007,14.95561245600004],[120.54400086500004,14.958899737000024],[120.543528465,14.96715331400003],[120.5500128430001,14.972343538000075],[120.55138536700008,14.970491595000055],[120.55261029700011,14.972272659000055],[120.55682075000004,14.971500854000055],[120.5599381610001,14.97353430000004],[120.56076695200011,14.98271826000007],[120.55691267100008,14.983845304000056],[120.55117146400005,14.98535253800003],[120.54878028100006,14.995663943000068],[120.53585050000004,14.999495391000039],[120.53487935400005,15.004998378000039],[120.53590566300011,15.007169302000023],[120.533873749,15.00959754300004],[120.5294047220001,15.010431603000029],[120.52520987100002,15.014589694000051],[120.52104146900001,15.015863223000053],[120.52350196000009,15.019812143000024],[120.53621967800007,15.021041694000075],[120.53304660300012,15.034202742000048],[120.53218121900011,15.035392645000059],[120.53026357400006,15.034315867000032],[120.52928819600004,15.035720412000046],[120.52182930400011,15.031512578000047],[120.51812516900009,15.03439217700003],[120.51359206200004,15.031051184000034],[120.49254389400005,15.03763993900003],[120.48022247500012,15.02582290600003],[120.46253699100009,15.028299258000061],[120.46179988500012,15.029961225000022],[120.45815944200001,15.02964404100004],[120.45867955000006,15.02440251400003],[120.455128854,15.025557352000021],[120.44943222900008,15.024488696000049],[120.44461706100003,15.018733621000024],[120.44111003700004,15.019974679000029],[120.43829328200002,15.015990707000071],[120.4219665490001,15.029677780000043],[120.41978590300005,14.985040784000034],[120.42439436100005,14.98047921500006],[120.42422098100008,14.975998620000041],[120.43661286000008,14.969119263000039],[120.43378821300007,14.966655139000068],[120.43623309200007,14.962316904000033],[120.44297591100008,14.96000011700005],[120.4476922,14.960627217000024],[120.4621665190001,14.928311204000067],[120.46126986800004,14.921266418000073],[120.4673985500001,14.922759493000058],[120.47357078700009,14.920860990000051],[120.4838347650001,14.913516805000029],[120.48638751100009,14.908958146000032],[120.48653124400005,14.90433949900006],[120.47937885400006,14.89609994600005],[120.47934569400002,14.890787504000059]]]}},{"type":"Feature","properties":{"name":"Guagua","filterValue":"Guagua","psgcCode":"0305407000","scope":"pampanga","sourceId":"30758251B51430418029688"},"geometry":{"type":"Polygon","coordinates":[[[120.62533876200007,15.000655600000073],[120.62478531800002,14.999497288000043],[120.62284873300007,15.000767058000065],[120.6194321810001,14.99506384700004],[120.61687574200005,14.997143837000067],[120.60885161400006,14.98945834400007],[120.60341739800003,14.986602099000038],[120.59838084600005,14.992143295000062],[120.59418657900005,14.994514228000071],[120.59587661800003,14.99679446600004],[120.58449740900005,15.005021068000076],[120.58575701300003,15.006527265000045],[120.57619854600011,15.00766866400005],[120.57360419300005,15.010522453000021],[120.5731616270001,15.014551331000064],[120.56694494300007,15.020855206000022],[120.56311494900001,15.017944386000067],[120.56305659100008,15.014192545000071],[120.56006364200005,15.012265557000035],[120.54728546000001,15.022467192000022],[120.5465669030001,15.019641297000078],[120.54486108000003,15.019490055000063],[120.54074717800006,15.012325745000055],[120.53706592900005,15.014346992000071],[120.53915837700004,15.018968378000068],[120.53621967800007,15.021041694000075],[120.52350196000009,15.019812143000024],[120.52104146900001,15.015863223000053],[120.52520987100002,15.014589694000051],[120.5294047220001,15.010431603000029],[120.533873749,15.00959754300004],[120.53590566300011,15.007169302000023],[120.53487935400005,15.004998378000039],[120.53585050000004,14.999495391000039],[120.54878028100006,14.995663943000068],[120.55117146400005,14.98535253800003],[120.55691267100008,14.983845304000056],[120.5583673860001,14.985086788000046],[120.56614525600003,14.984560814000076],[120.58125538700006,14.980209348000074],[120.59512778400006,14.97302264800004],[120.5936746970001,14.970489160000056],[120.60993972800009,14.962653158000023],[120.6124606730001,14.959631921000039],[120.61440951600002,14.959801878000064],[120.61486840100008,14.95778505100003],[120.62086731700003,14.960825138000075],[120.62077638700009,14.958893371000045],[120.62371716500002,14.956247094000048],[120.6259889910001,14.951155074000042],[120.63428127000009,14.942405783000027],[120.64410274000011,14.962182118000044],[120.65150295400008,14.966739312000072],[120.66107724200003,14.96755458900003],[120.65580929300006,14.98277310800006],[120.64472987700003,14.99035101100003],[120.63763315500012,14.985336403000076],[120.63248935400009,14.989422717000025],[120.63021117300002,14.997653141000058],[120.62533876200007,15.000655600000073]]]}},{"type":"Feature","properties":{"name":"Lubao","filterValue":"Lubao","psgcCode":"0305408000","scope":"pampanga","sourceId":"30758251B85700326948768"},"geometry":{"type":"Polygon","coordinates":[[[120.49085503200001,14.88988196200006],[120.49307808600008,14.885877124000046],[120.4905360360001,14.88003258200007],[120.49489526600007,14.879275215000064],[120.49762585500002,14.872238],[120.50599482200005,14.861656435000043],[120.51209896000012,14.863432470000078],[120.5180731580001,14.859971469000072],[120.52457314100002,14.847515500000043],[120.5248654620001,14.840197249000028],[120.52996468200001,14.832459915000072],[120.55426459000012,14.820737035000036],[120.55801742800008,14.823545655000032],[120.5593921840001,14.826841330000036],[120.56418125000005,14.826168062000022],[120.56861497000011,14.823391928000035],[120.57093403500005,14.823429651000026],[120.57160920000001,14.82508279800004],[120.57744174600009,14.824254297000039],[120.57891057100005,14.82261943800006],[120.57677209300005,14.820685594000054],[120.5768417590001,14.81571150600007],[120.58085364500005,14.814199131000066],[120.58481444900008,14.821525265000048],[120.58,14.82945],[120.57515144700005,14.831443440000044],[120.57639690300005,14.832433885000057],[120.57603045200005,14.840667675000077],[120.57365581400006,14.842151673000046],[120.56928394400006,14.839539193000064],[120.56799055600004,14.840511974000037],[120.5718414270001,14.844274665000057],[120.57010409800012,14.848579843000039],[120.57141361600009,14.84853683700004],[120.57294901000012,14.844838236000044],[120.57731042700004,14.843488182000044],[120.57814375600003,14.832835172000046],[120.58407891400009,14.825065465000023],[120.58745759100009,14.824133299000039],[120.60021874600011,14.830295621000062],[120.60409050700002,14.831954212000028],[120.60242932000006,14.836186627000075],[120.60543977600003,14.840402719000053],[120.61262714600002,14.839651644000071],[120.61532893000003,14.844606653000028],[120.60678545200005,14.851741865000065],[120.60124248000011,14.854297576000022],[120.6049573250001,14.865429213000027],[120.6160373680001,14.871323951000022],[120.61365109500002,14.871607724000057],[120.61379932800003,14.875019182000074],[120.60666667300006,14.881398525000066],[120.6064427440001,14.890175328000055],[120.60836494800003,14.893497656000022],[120.60390512200001,14.899383009000076],[120.60744487300008,14.90597067300007],[120.6059499700001,14.911289552000028],[120.60808137200002,14.913235189000034],[120.61503191700001,14.93191818400004],[120.61334560400007,14.933704142000067],[120.61365323000007,14.939955018000035],[120.61087976500005,14.943881972000042],[120.61597210500008,14.952103214000033],[120.61364117800008,14.955326613000068],[120.61486840100008,14.95778505100003],[120.61440951600002,14.959801878000064],[120.6124606730001,14.959631921000039],[120.60993972800009,14.962653158000023],[120.5936746970001,14.970489160000056],[120.59512778400006,14.97302264800004],[120.58125538700006,14.980209348000074],[120.56614525600003,14.984560814000076],[120.5583673860001,14.985086788000046],[120.55691267100008,14.983845304000056],[120.56076695200011,14.98271826000007],[120.5599381610001,14.97353430000004],[120.55682075000004,14.971500854000055],[120.55261029700011,14.972272659000055],[120.55138536700008,14.970491595000055],[120.5500128430001,14.972343538000075],[120.543528465,14.96715331400003],[120.54400086500004,14.958899737000024],[120.54185505200007,14.95561245600004],[120.54358919800006,14.95458478200004],[120.5424327390001,14.94995212300006],[120.53230979300008,14.95039422700006],[120.52752679600007,14.954990480000049],[120.52557462700008,14.94953872700006],[120.5267699210001,14.944552443000077],[120.51277570600007,14.929133655000044],[120.51242337300005,14.926168122000036],[120.4994885100001,14.917134469000075],[120.50249422800005,14.914895869000077],[120.50113333200011,14.910404909000022],[120.50541543700001,14.909411570000032],[120.5051653160001,14.907705364000037],[120.5071165600001,14.906510247000028],[120.505351958,14.905845283000076],[120.50646428700009,14.901117191000026],[120.5027967200001,14.896076247000053],[120.49213368200003,14.900741410000023],[120.49497620200009,14.892299187000049],[120.49085503200001,14.88988196200006]]]}},{"type":"Feature","properties":{"name":"Mabalacat City","filterValue":"Mabalacat City","psgcCode":"0305409000","scope":"pampanga","sourceId":"30758251B7981212511946"},"geometry":{"type":"Polygon","coordinates":[[[120.623465527,15.175674680000043],[120.62435645000005,15.17727278700005],[120.62010301100008,15.183064167000055],[120.63295860200003,15.187977114000034],[120.63079059400002,15.189938135000034],[120.628534392,15.18863589700004],[120.6223361860001,15.198929006000071],[120.61504226200009,15.196155607000037],[120.61299889700001,15.20024046900005],[120.61429551700007,15.201844419000054],[120.61329445500007,15.207447241000068],[120.61884471700012,15.208389691000036],[120.62416064000001,15.211476849000064],[120.62177532300007,15.214996970000072],[120.62600468100004,15.216431930000056],[120.621891333,15.220461059000058],[120.62029879400006,15.22491074900006],[120.62306457000011,15.225513786000022],[120.62045200800003,15.230252504000077],[120.62574902000006,15.231877900000029],[120.62581483200006,15.233961210000075],[120.61491472500006,15.249722633000033],[120.6166080480001,15.262939516000074],[120.61108711100007,15.26490977700007],[120.60348375500007,15.261038916000075],[120.59331824000003,15.265997952000077],[120.58073283800002,15.261820020000073],[120.58522132100006,15.267667877000065],[120.57229299300002,15.262113928000076],[120.56732752500011,15.263818960000037],[120.55496093300007,15.258979470000043],[120.55132632400012,15.255070470000078],[120.54766076800001,15.25444006400005],[120.54492805400002,15.249460966000072],[120.54569553800002,15.246096016000024],[120.54185476000009,15.239752164000038],[120.54496678300006,15.239949882000076],[120.5403126650001,15.235281059000044],[120.53784958500012,15.236031012000069],[120.53159670000002,15.231303715000024],[120.52827077000006,15.232399728000075],[120.52548769600003,15.227949016000025],[120.52199098000006,15.226423853000028],[120.51778235900008,15.22896031700003],[120.51575615200011,15.227934192000077],[120.51284662400008,15.22936297700005],[120.50812218400006,15.225580642000068],[120.50667031400008,15.227807994000045],[120.49827611600006,15.227083138000069],[120.49636398900009,15.224991888000034],[120.49363879400005,15.224838987000055],[120.49343638300002,15.222451913000043],[120.48969244500006,15.21884478100003],[120.48827991400003,15.219393327000034],[120.48529465500008,15.215689186000077],[120.47852653500001,15.215490357000022],[120.47496843400006,15.212915097000064],[120.44756009000002,15.20325202600003],[120.44706927700008,15.197371133000047],[120.44959667500007,15.188939599000037],[120.44977598600008,15.175672598000062],[120.47811933500009,15.176563754000028],[120.4795273530001,15.182162395000034],[120.48398661100009,15.182744611000032],[120.48932852500002,15.188433099000065],[120.49244337300001,15.187693393000075],[120.49362311700008,15.189267592000022],[120.49607669600005,15.187657204000061],[120.49883525500002,15.187920923000036],[120.50966037700005,15.19831991600006],[120.52394512600006,15.207024671000056],[120.53211898300003,15.209252947000039],[120.53598042300007,15.208357528000022],[120.54272360400012,15.211445388000072],[120.54422408200003,15.209776845000022],[120.5477783550001,15.210251063000044],[120.54828063000002,15.212575319000052],[120.55313223600001,15.216929271000026],[120.55899929200007,15.215938350000044],[120.56381292900005,15.217085667000049],[120.56575091400009,15.221293505000062],[120.57036624400007,15.222545479000075],[120.57945826500008,15.193532864000076],[120.57951642300009,15.183021979000046],[120.58112222300008,15.18134615300005],[120.58261167100011,15.17037166800003],[120.5914718470001,15.172001068000043],[120.59312980800007,15.173830976000033],[120.59924771500005,15.175549020000062],[120.60576683600004,15.173845823000022],[120.609015053,15.175279928000066],[120.61709718400004,15.173902696000027],[120.623465527,15.175674680000043]]]}},{"type":"Feature","properties":{"name":"Macabebe","filterValue":"Macabebe","psgcCode":"0305410000","scope":"pampanga","sourceId":"30758251B25010155253639"},"geometry":{"type":"Polygon","coordinates":[[[120.73067044400011,14.947920649000025],[120.72743217700008,14.947906063000062],[120.72514205200002,14.953171893000047],[120.72216008400005,14.95386988000007],[120.720152417,14.949720295000077],[120.71772815400004,14.950149705000058],[120.71745669400002,14.945864750000055],[120.71373988300002,14.947970229000077],[120.7109828130001,14.946091563000039],[120.7085710130001,14.948452590000045],[120.70597134500008,14.948335808000024],[120.70509294200008,14.950077382000075],[120.70149301200001,14.949270063000029],[120.70124421600008,14.953057860000058],[120.69715984600009,14.954244194000069],[120.69442976900007,14.95222334600004],[120.69546338900011,14.94938128900003],[120.69789795600002,14.948858236000035],[120.69752857100002,14.946367383000052],[120.69919080400007,14.946462225000062],[120.70402775200012,14.941036258000054],[120.69738468300011,14.935606164000035],[120.69959349700002,14.935834662000048],[120.69980122200002,14.934179783000047],[120.70183693100012,14.93440828100006],[120.70313867700008,14.93263569100003],[120.70078863300012,14.930671591000078],[120.68876516000012,14.929737914000043],[120.6892130220001,14.925274010000066],[120.68620537400011,14.922764382000025],[120.68482849600002,14.922862033000058],[120.684437892,14.927197733000071],[120.68233839700008,14.927246559000025],[120.677924576,14.931025649000048],[120.67343576100006,14.927856210000073],[120.67510331000005,14.925236881000046],[120.6693381020001,14.92731357100007],[120.66482686300003,14.923063852000041],[120.65801797300003,14.924726379000049],[120.65679442700002,14.929116198000031],[120.65779381200002,14.930237003000059],[120.65371221400005,14.93503778400003],[120.65126530400005,14.933529122000039],[120.65114643700008,14.93073574300007],[120.64756061100002,14.929824428000074],[120.6424361710001,14.934458801000062],[120.637501842,14.931916197000078],[120.63620879500002,14.923088621000034],[120.63908010700004,14.920910708000065],[120.64134396100008,14.923978461000047],[120.64994660600007,14.923904539000034],[120.65140703600002,14.920592186000022],[120.64961256900006,14.917722909000076],[120.6518365180001,14.917687046000026],[120.65182190500002,14.915131538000026],[120.64865918100008,14.910754380000071],[120.64552892800009,14.913371583000071],[120.642668189,14.912830391000057],[120.64201442900003,14.911102907000043],[120.63819578000005,14.91190387100005],[120.63736451000011,14.909063697000022],[120.63300466900012,14.906002716000046],[120.6308139250001,14.906297125000037],[120.62962330300002,14.908323346000032],[120.62639657800003,14.90730641500005],[120.63070950600002,14.899565345000042],[120.62355068400007,14.892386471000066],[120.623811638,14.880153972000073],[120.63391375700007,14.876793500000076],[120.63773655400007,14.870424472000025],[120.62572993700007,14.850648055000022],[120.62712380800008,14.833638680000035],[120.62046547600005,14.812593499000059],[120.62170365700001,14.812238753000031],[120.61992496700009,14.805715881000026],[120.62090816500006,14.804534465000074],[120.61983316100009,14.804611547000036],[120.62154563800004,14.801547510000034],[120.62037682900007,14.799871475000032],[120.62166625200007,14.79915513700007],[120.620588343,14.797867776000032],[120.6221424370001,14.793281008000065],[120.6239494130001,14.793373177000035],[120.62467722000008,14.79904934800004],[120.63050597000006,14.799830550000024],[120.63124097200011,14.798041923000028],[120.63270197600002,14.798364367000033],[120.63581558600004,14.792800810000074],[120.63471854000011,14.789905038000029],[120.63705526800004,14.788182499000072],[120.63717393200011,14.783837797000047],[120.64356671000007,14.783604724000043],[120.6432755510001,14.779500340000027],[120.64577006000002,14.77925734400003],[120.64759906200004,14.773456097000064],[120.651980965,14.767892699000072],[120.6551761290001,14.77407129200003],[120.65734942900008,14.773608970000055],[120.65489734300002,14.76749103800006],[120.6671709960001,14.768303551000031],[120.66666001600004,14.769930124000041],[120.66308131900007,14.770955951000076],[120.66297413300003,14.774089235000076],[120.66468803200007,14.771851854000033],[120.6722076210001,14.769553993000045],[120.67473613600009,14.77131885600005],[120.67411170000003,14.774727595000058],[120.67761847000008,14.772576858000036],[120.68279848300006,14.773880383000062],[120.68561897900008,14.770336654000062],[120.68723721300012,14.770876218000069],[120.68662271500011,14.773103611000067],[120.66982442500012,14.787808605000066],[120.66297957200004,14.795742726000071],[120.66185527900006,14.803168267000046],[120.66298156700009,14.813070330000073],[120.6584895100001,14.815427298000031],[120.65213976200005,14.837007560000075],[120.65307224300011,14.840737482000065],[120.65192610400004,14.845981031000065],[120.65597223100008,14.851490260000048],[120.65366858400012,14.851892484000075],[120.65336785700003,14.855112132000045],[120.65080083300006,14.856524232000027],[120.65245722600002,14.862290936000022],[120.65939454000011,14.868239509000034],[120.65049409300002,14.881554182000059],[120.65975762900007,14.883762707000074],[120.659149393,14.889495669000041],[120.66063456200004,14.890822323000066],[120.67373147800004,14.894180838000068],[120.67665492100002,14.893048332000035],[120.68474048200005,14.898368473000062],[120.68705515300007,14.897580875000074],[120.69392778400004,14.899515436000058],[120.69641444800004,14.903141262000076],[120.70358024400002,14.902244476000021],[120.70576360100006,14.903228124000066],[120.70494484200003,14.90617906700004],[120.70970530400007,14.906422778000035],[120.71248212500007,14.904994501000033],[120.71268926900007,14.902862429000038],[120.71005188600009,14.900653736000038],[120.71013899500008,14.899514629000066],[120.71327359600002,14.898683986000037],[120.7127527770001,14.89595451100007],[120.71419919000004,14.895342508000056],[120.71194502000003,14.891614478000065],[120.7139112000001,14.890674493000063],[120.71056966700007,14.885247775000039],[120.71272375,14.881574517000047],[120.71197270800008,14.87906651000003],[120.7176087580001,14.87980913000007],[120.71967414800008,14.882908131000022],[120.72117210100009,14.882806235000032],[120.7238794540001,14.888175082000032],[120.72436595600004,14.893194222000034],[120.72946583700002,14.894148332000043],[120.73126702400009,14.899587247000056],[120.72963612300009,14.905821223000032],[120.72606955000003,14.908316840000055],[120.72575764100009,14.910641975000033],[120.7278339180001,14.915451201000053],[120.72917658900008,14.915571819000036],[120.72853062100012,14.920636063000075],[120.73411899100006,14.92265320000007],[120.73333087200001,14.928257064000036],[120.733424624,14.930607142000042],[120.7270590070001,14.940848019000043],[120.73080656800005,14.944818128000065],[120.73067044400011,14.947920649000025]]]}},{"type":"Feature","properties":{"name":"Magalang","filterValue":"Magalang","psgcCode":"0305411000","scope":"pampanga","sourceId":"30758251B60440366228098"},"geometry":{"type":"Polygon","coordinates":[[[120.74215275600011,15.256829392000043],[120.73540473100002,15.25724563600005],[120.73726907900004,15.267155592000051],[120.73923871400007,15.269425218000038],[120.73954943900003,15.275697114000025],[120.73714752700005,15.278461951000054],[120.73421095200001,15.27715833800005],[120.72751186000005,15.274497784000062],[120.72342415500009,15.27596055600003],[120.70611240500011,15.274087277000035],[120.70335736000004,15.270514801000047],[120.70234398200012,15.264247830000045],[120.69336023000005,15.262664268000037],[120.67504463800003,15.268812095000044],[120.66793663200008,15.27776013700003],[120.66337176900004,15.278676208000036],[120.65281420300005,15.273419936000039],[120.64104780500008,15.260926176000055],[120.63261738900007,15.259523647000037],[120.62521773300011,15.262498089000076],[120.6166080480001,15.262939516000074],[120.61491472500006,15.249722633000033],[120.62581483200006,15.233961210000075],[120.62574902000006,15.231877900000029],[120.62045200800003,15.230252504000077],[120.62306457000011,15.225513786000022],[120.62029879400006,15.22491074900006],[120.621891333,15.220461059000058],[120.62600468100004,15.216431930000056],[120.62177532300007,15.214996970000072],[120.62416064000001,15.211476849000064],[120.61884471700012,15.208389691000036],[120.61329445500007,15.207447241000068],[120.61429551700007,15.201844419000054],[120.61299889700001,15.20024046900005],[120.61504226200009,15.196155607000037],[120.6223361860001,15.198929006000071],[120.628534392,15.18863589700004],[120.63079059400002,15.189938135000034],[120.63295860200003,15.187977114000034],[120.63682361800011,15.188199906000023],[120.63740594600006,15.18665801000003],[120.64281580400007,15.184616007000045],[120.64721445400005,15.188716495000051],[120.65236924200008,15.190830671000072],[120.65932628400003,15.198062608000043],[120.66440349800007,15.200170455000034],[120.66725063800004,15.199328165000054],[120.676784956,15.201782747000038],[120.68007010300005,15.197781305000035],[120.68548333100011,15.196800283000073],[120.69390162200011,15.190098232000025],[120.6997137190001,15.196647642000073],[120.71505666100006,15.203710452000053],[120.71750688700001,15.210060289000069],[120.72252587100002,15.212476837000054],[120.72812743700001,15.232950196000047],[120.73265349100006,15.235608354000021],[120.73825717600005,15.234279275000063],[120.7334404830001,15.245024657000044],[120.73492880600008,15.245450649000077],[120.73233051700004,15.247131681000042],[120.73623272800012,15.24793846800003],[120.74215275600011,15.256829392000043]]]}},{"type":"Feature","properties":{"name":"Masantol","filterValue":"Masantol","psgcCode":"0305412000","scope":"pampanga","sourceId":"30758251B7856900683747"},"geometry":{"type":"Polygon","coordinates":[[[120.7238794540001,14.888175082000032],[120.72117210100009,14.882806235000032],[120.71967414800008,14.882908131000022],[120.7176087580001,14.87980913000007],[120.71197270800008,14.87906651000003],[120.71272375,14.881574517000047],[120.71056966700007,14.885247775000039],[120.7139112000001,14.890674493000063],[120.71194502000003,14.891614478000065],[120.71419919000004,14.895342508000056],[120.7127527770001,14.89595451100007],[120.71327359600002,14.898683986000037],[120.71013899500008,14.899514629000066],[120.71005188600009,14.900653736000038],[120.71268926900007,14.902862429000038],[120.71248212500007,14.904994501000033],[120.70970530400007,14.906422778000035],[120.70494484200003,14.90617906700004],[120.70576360100006,14.903228124000066],[120.70358024400002,14.902244476000021],[120.69641444800004,14.903141262000076],[120.69392778400004,14.899515436000058],[120.68705515300007,14.897580875000074],[120.68474048200005,14.898368473000062],[120.67665492100002,14.893048332000035],[120.67373147800004,14.894180838000068],[120.66063456200004,14.890822323000066],[120.659149393,14.889495669000041],[120.65975762900007,14.883762707000074],[120.65049409300002,14.881554182000059],[120.65939454000011,14.868239509000034],[120.65245722600002,14.862290936000022],[120.65080083300006,14.856524232000027],[120.65336785700003,14.855112132000045],[120.65366858400012,14.851892484000075],[120.65597223100008,14.851490260000048],[120.65192610400004,14.845981031000065],[120.65307224300011,14.840737482000065],[120.65213976200005,14.837007560000075],[120.6584895100001,14.815427298000031],[120.66298156700009,14.813070330000073],[120.66185527900006,14.803168267000046],[120.66297957200004,14.795742726000071],[120.66982442500012,14.787808605000066],[120.68662271500011,14.773103611000067],[120.69251438700007,14.786715064000077],[120.69630391700002,14.804632797000068],[120.69892857900004,14.810382227000048],[120.69934187000001,14.817579944000045],[120.69632039600003,14.82198956700006],[120.69808498200007,14.828765640000029],[120.69705313800011,14.833358486000066],[120.70329721900009,14.836538190000056],[120.71310863500003,14.855759677000037],[120.71280639800011,14.860421373000065],[120.71625676800011,14.862770802000057],[120.73005041200008,14.866045856000028],[120.7360270150001,14.870179453000048],[120.7350646540001,14.872973665000075],[120.7216121670001,14.873341453000023],[120.7238794540001,14.888175082000032]]]}},{"type":"Feature","properties":{"name":"Mexico","filterValue":"Mexico","psgcCode":"0305413000","scope":"pampanga","sourceId":"30758251B60921017943813"},"geometry":{"type":"Polygon","coordinates":[[[120.62867474000006,15.129305749000025],[120.62674743100001,15.125241710000068],[120.64136864800003,15.116343537000034],[120.64575204700009,15.115364468000053],[120.64958963600009,15.111013448000051],[120.6529574440001,15.109584840000025],[120.64810998700011,15.104415501000062],[120.6566476270001,15.097879078000062],[120.66185763500005,15.090687325000033],[120.66795465400003,15.088851107000039],[120.66946508400008,15.082831683000052],[120.67735963300004,15.076146705000042],[120.69220699300001,15.052828592000026],[120.69983833600008,15.052596367000035],[120.70270595400007,15.048988831000031],[120.71774104700012,15.037788342000056],[120.72744225400004,15.032262459000037],[120.72699065600011,15.031077183000036],[120.72781443400004,15.031172927000057],[120.73099890800006,15.025054683000064],[120.73321257100008,15.024745304000078],[120.7357930500001,15.027492791000043],[120.73576472200011,15.030960080000057],[120.74497712700008,15.030840902000023],[120.74757309800009,15.028624406000063],[120.74807390400008,15.03346964900004],[120.75709962700012,15.037779406000027],[120.75392864600008,15.044070359000045],[120.7558499380001,15.04885233400006],[120.75940772700005,15.050123277000068],[120.758991164,15.045757865000041],[120.76050014200007,15.04191103200003],[120.76779994600008,15.036982876000025],[120.7680957440001,15.043978458000026],[120.77066826700002,15.052181284000028],[120.78217593900001,15.055905993000067],[120.77455712100004,15.063991067000075],[120.76296429800004,15.075414756000043],[120.76058087500007,15.074315573000035],[120.75898283900005,15.075916177000067],[120.760322685,15.078267205000031],[120.75901677500008,15.07940880800004],[120.76247672900001,15.083221819000073],[120.76069916300003,15.086776318000034],[120.76147805000005,15.092007193000029],[120.75570634600001,15.090731730000073],[120.7548920800001,15.091963127000042],[120.74519520100012,15.093774784000061],[120.73900795700001,15.098890494000045],[120.71654211000009,15.124872027000038],[120.71195572300007,15.128027098000075],[120.71172526200007,15.130114544000037],[120.71059058800006,15.129356492000056],[120.69770718600012,15.144795964000025],[120.69413509100002,15.146886626000025],[120.6929473140001,15.150559529000077],[120.68432484300001,15.15059836000006],[120.67013182100004,15.168617176000055],[120.66767088000006,15.175691657000073],[120.64721445400005,15.188716495000051],[120.64281580400007,15.184616007000045],[120.63740594600006,15.18665801000003],[120.63682361800011,15.188199906000023],[120.63295860200003,15.187977114000034],[120.62010301100008,15.183064167000055],[120.62435645000005,15.17727278700005],[120.623465527,15.175674680000043],[120.63096638400009,15.177474545000052],[120.63961488400003,15.18162051400003],[120.64265713300006,15.178686990000074],[120.63953720000006,15.173347049000029],[120.63316922800004,15.169649969000034],[120.64109516600001,15.16329236200005],[120.63718774900008,15.158138846000043],[120.63655236400007,15.150397248000047],[120.63240987800009,15.135962923000022],[120.62867474000006,15.129305749000025]]]}},{"type":"Feature","properties":{"name":"Minalin","filterValue":"Minalin","psgcCode":"0305414000","scope":"pampanga","sourceId":"30758251B70394947759752"},"geometry":{"type":"Polygon","coordinates":[[[120.74813139200012,14.978946113000063],[120.7485921660001,14.983205191000025],[120.74578730600001,14.986219016000064],[120.74705650900012,14.988236527000026],[120.74578309900005,14.992063146000078],[120.74885739000001,14.99214700400006],[120.7449592590001,14.998602832000074],[120.74098578300004,15.004412459000037],[120.73033934500006,15.005687660000035],[120.73144948400011,15.002814360000059],[120.73022506600012,14.999279874000024],[120.73057606600003,14.989990625000075],[120.7268619990001,14.982897166000043],[120.72041951200003,14.981285865000075],[120.71584992800001,14.983454379000023],[120.71398819600006,14.979973907000044],[120.71135391200005,14.980532381000046],[120.70623036100005,14.975487498000064],[120.70034572300005,14.98347314700004],[120.70061479100002,14.985754375000056],[120.70435403500005,14.988824226000077],[120.70169241300005,14.991355673000044],[120.70169529200007,14.99652418200003],[120.69342931900007,14.996453651000024],[120.69116795800005,14.993133460000024],[120.69445625500009,14.988023615000031],[120.69350778600005,14.985078773000055],[120.68316641700005,14.97978570500004],[120.6776426020001,14.97072982700007],[120.6719741600001,14.96734411500006],[120.66107724200003,14.96755458900003],[120.65150295400008,14.966739312000072],[120.64410274000011,14.962182118000044],[120.63428127000009,14.942405783000027],[120.6424361710001,14.934458801000062],[120.64756061100002,14.929824428000074],[120.65114643700008,14.93073574300007],[120.65126530400005,14.933529122000039],[120.65371221400005,14.93503778400003],[120.65779381200002,14.930237003000059],[120.65679442700002,14.929116198000031],[120.65801797300003,14.924726379000049],[120.66482686300003,14.923063852000041],[120.6693381020001,14.92731357100007],[120.67510331000005,14.925236881000046],[120.67343576100006,14.927856210000073],[120.677924576,14.931025649000048],[120.68233839700008,14.927246559000025],[120.684437892,14.927197733000071],[120.68482849600002,14.922862033000058],[120.68620537400011,14.922764382000025],[120.6892130220001,14.925274010000066],[120.68876516000012,14.929737914000043],[120.70078863300012,14.930671591000078],[120.70313867700008,14.93263569100003],[120.70183693100012,14.93440828100006],[120.69980122200002,14.934179783000047],[120.69959349700002,14.935834662000048],[120.69738468300011,14.935606164000035],[120.70402775200012,14.941036258000054],[120.69919080400007,14.946462225000062],[120.69752857100002,14.946367383000052],[120.69789795600002,14.948858236000035],[120.69546338900011,14.94938128900003],[120.69442976900007,14.95222334600004],[120.69715984600009,14.954244194000069],[120.70124421600008,14.953057860000058],[120.70149301200001,14.949270063000029],[120.70509294200008,14.950077382000075],[120.70597134500008,14.948335808000024],[120.7085710130001,14.948452590000045],[120.7109828130001,14.946091563000039],[120.71373988300002,14.947970229000077],[120.71745669400002,14.945864750000055],[120.71772815400004,14.950149705000058],[120.720152417,14.949720295000077],[120.72216008400005,14.95386988000007],[120.72514205200002,14.953171893000047],[120.72743217700008,14.947906063000062],[120.73067044400011,14.947920649000025],[120.7317790400001,14.948620815000027],[120.73396705800008,14.947060029000056],[120.73605296800008,14.948868791000052],[120.73852535100002,14.954936850000024],[120.73586226300006,14.961577667000029],[120.74035460400012,14.964898860000062],[120.73971458200003,14.968684352000025],[120.74179774800007,14.975535770000022],[120.74746128100003,14.977357906000066],[120.74813139200012,14.978946113000063]]]}},{"type":"Feature","properties":{"name":"Porac","filterValue":"Porac","psgcCode":"0305415000","scope":"pampanga","sourceId":"30758251B84258699520401"},"geometry":{"type":"Polygon","coordinates":[[[120.44977598600008,15.175672598000062],[120.44959667500007,15.188939599000037],[120.44706927700008,15.197371133000047],[120.44756009000002,15.20325202600003],[120.44022761600002,15.200999072000059],[120.42868077700007,15.191936175000023],[120.41835810100008,15.181353086000058],[120.40004242400005,15.180934482000055],[120.39290905200005,15.173570846000075],[120.3876070340001,15.170745056000044],[120.37875602300005,15.16892722600005],[120.37414010900011,15.169763054000043],[120.36759662500003,15.167097115000047],[120.35605737500009,15.135023511000043],[120.36503970000001,15.108136663000039],[120.37321399300004,15.101486373000057],[120.406873,15.074102701000072],[120.422285224,15.041691793000041],[120.4219665490001,15.029677780000043],[120.43829328200002,15.015990707000071],[120.44111003700004,15.019974679000029],[120.44461706100003,15.018733621000024],[120.44943222900008,15.024488696000049],[120.455128854,15.025557352000021],[120.45867955000006,15.02440251400003],[120.45815944200001,15.02964404100004],[120.46179988500012,15.029961225000022],[120.46253699100009,15.028299258000061],[120.48022247500012,15.02582290600003],[120.49254389400005,15.03763993900003],[120.51359206200004,15.031051184000034],[120.51812516900009,15.03439217700003],[120.52182930400011,15.031512578000047],[120.52928819600004,15.035720412000046],[120.53026357400006,15.034315867000032],[120.53218121900011,15.035392645000059],[120.53304660300012,15.034202742000048],[120.53621967800007,15.021041694000075],[120.53915837700004,15.018968378000068],[120.53706592900005,15.014346992000071],[120.54074717800006,15.012325745000055],[120.54486108000003,15.019490055000063],[120.5465669030001,15.019641297000078],[120.54728546000001,15.022467192000022],[120.56006364200005,15.012265557000035],[120.56305659100008,15.014192545000071],[120.56311494900001,15.017944386000067],[120.56694494300007,15.020855206000022],[120.57113001500011,15.024036959000057],[120.57127124300007,15.04320408500007],[120.58580701400001,15.050473787000044],[120.59346202300003,15.061156260000075],[120.59341805500003,15.064430486000049],[120.56995430500001,15.073985298000025],[120.56525078800007,15.078401430000042],[120.5607215230001,15.078441360000056],[120.5599452990001,15.080542488000049],[120.56103104500005,15.081838073000029],[120.55837438700007,15.085201108000035],[120.5615441010001,15.088275256000031],[120.565498165,15.102192959000035],[120.57265237800004,15.098555801000032],[120.57620417700002,15.102246280000031],[120.59065748500007,15.092823585000076],[120.59584541700008,15.094571261000056],[120.59620716600011,15.099522703000048],[120.5943532020001,15.100834044000067],[120.59564193300002,15.102054947000056],[120.59348285900012,15.104792192000048],[120.59450441600006,15.106651745000022],[120.59602877100008,15.105534417000058],[120.59740947000012,15.106252700000027],[120.59723459500003,15.108419555000069],[120.59218632000011,15.109915340000043],[120.58821833500008,15.114600056000029],[120.58019926400004,15.116147779000073],[120.58145035400003,15.118813572000022],[120.57990229000006,15.120504822000044],[120.5828635370001,15.122727734000023],[120.57946329700007,15.126417944000025],[120.57850673900009,15.125823901000047],[120.57091751000007,15.130856915000038],[120.5702180400001,15.129759041000057],[120.56314046000011,15.132592354000053],[120.56368840100004,15.133714328000053],[120.54831996900009,15.139480751000065],[120.53787621400011,15.134111493000034],[120.53477374400006,15.136533970000073],[120.53546223700005,15.140307934000077],[120.52251984700001,15.144251050000037],[120.52003332100003,15.142792473000043],[120.51439425600006,15.144657006000045],[120.51282331000004,15.142718392000063],[120.50958880500002,15.142361865000055],[120.4883803780001,15.14548979400007],[120.46726020500012,15.144220507000057],[120.44950805200006,15.151067770000054],[120.44977598600008,15.175672598000062]]]}},{"type":"Feature","properties":{"name":"City of San Fernando","filterValue":"City of San Fernando","psgcCode":"0305416000","scope":"pampanga","sourceId":"30758251B76914785362033"},"geometry":{"type":"Polygon","coordinates":[[[120.60058322900011,15.119668199000046],[120.603497,15.117654063000032],[120.60913067800004,15.101343326000062],[120.60573229800002,15.089062692000027],[120.60895791900009,15.082882877000031],[120.62632252600008,15.071210225000073],[120.63031832400009,15.066467578000072],[120.63127400400003,15.068222181000067],[120.63463395100007,15.065163940000048],[120.63329419800004,15.061571823000065],[120.63866757500011,15.056363993000048],[120.64252588800002,15.054849967000052],[120.64680858200006,15.045005685000035],[120.65388486400002,15.047260043000051],[120.65426540300007,15.042747932000054],[120.65959956600011,15.040513437000072],[120.66637108200007,15.03352833100007],[120.66800903800004,15.027055349000022],[120.67401965900001,15.021767486000044],[120.67433461600001,15.016710910000029],[120.67721481600006,15.017281861000072],[120.67904175500007,15.01420347000004],[120.68279146700002,15.013740760000076],[120.68324685800008,15.010394105000046],[120.68082757000002,15.007961563000038],[120.68115554000008,15.005666014000042],[120.68269862500006,15.004471842000044],[120.68704691800008,15.00412663000003],[120.68766280400007,15.005537460000028],[120.68984617300009,15.004483438000022],[120.69297350000011,15.007321467000054],[120.69519187300011,15.005025381000053],[120.69840240300005,15.005187977000048],[120.70071481200011,15.012336223000034],[120.70212690300002,15.011743743000068],[120.70219717600003,15.013743270000077],[120.70623372800003,15.016385741000022],[120.70760671500011,15.019328715000029],[120.71278879600004,15.018328181000072],[120.71468546800008,15.016628603000072],[120.71737908500006,15.016988514000047],[120.71721408200005,15.019803384000056],[120.72321365900007,15.023273371000073],[120.72478897100007,15.025586696000062],[120.72478073500008,15.029825352000046],[120.72699065600011,15.031077183000036],[120.72744225400004,15.032262459000037],[120.71774104700012,15.037788342000056],[120.70270595400007,15.048988831000031],[120.69983833600008,15.052596367000035],[120.69220699300001,15.052828592000026],[120.67735963300004,15.076146705000042],[120.66946508400008,15.082831683000052],[120.66795465400003,15.088851107000039],[120.66185763500005,15.090687325000033],[120.6566476270001,15.097879078000062],[120.64810998700011,15.104415501000062],[120.6529574440001,15.109584840000025],[120.64958963600009,15.111013448000051],[120.64575204700009,15.115364468000053],[120.64136864800003,15.116343537000034],[120.62674743100001,15.125241710000068],[120.62867474000006,15.129305749000025],[120.61832552600004,15.135982581000064],[120.61492129500004,15.13146424000007],[120.61357625900007,15.13246954300007],[120.60454576500001,15.124638545000039],[120.59866345800003,15.122023396000031],[120.60058322900011,15.119668199000046]]]}},{"type":"Feature","properties":{"name":"San Luis","filterValue":"San Luis","psgcCode":"0305417000","scope":"pampanga","sourceId":"30758251B39089965274487"},"geometry":{"type":"Polygon","coordinates":[[[120.87985681200007,15.01334577800003],[120.876870585,15.01422722600006],[120.86783095800001,15.008067062000066],[120.86341735400003,15.008137869000052],[120.86283910100008,15.00966020800007],[120.865045903,15.012799295000036],[120.86240246200009,15.018983061000029],[120.86095592400011,15.01552511500006],[120.85787517000006,15.01597878800004],[120.85636644500005,15.01477075200006],[120.85532721800007,15.017223750000028],[120.8550159780001,15.014480613000046],[120.85215151000011,15.013404459000071],[120.84962240300001,15.014783274000024],[120.84474168100007,15.013539628000046],[120.84346283700006,15.018496612000035],[120.8411104700001,15.016091448000054],[120.84315192600002,15.013287379000076],[120.84132165500012,15.013111391000052],[120.83744992800007,15.02060846300003],[120.8354554020001,15.021224420000067],[120.83709795300001,15.024967089000029],[120.83057467900005,15.024691375000032],[120.8267933080001,15.045039518000067],[120.82519352300005,15.067398852000053],[120.82120080400011,15.067383568000025],[120.81842691500003,15.064284913000051],[120.81695197800002,15.065926219000062],[120.81139234600005,15.066856019000056],[120.7969363840001,15.078988135000031],[120.77455712100004,15.063991067000075],[120.78217593900001,15.055905993000067],[120.77066826700002,15.052181284000028],[120.7680957440001,15.043978458000026],[120.76779994600008,15.036982876000025],[120.76050014200007,15.04191103200003],[120.758991164,15.045757865000041],[120.75940772700005,15.050123277000068],[120.7558499380001,15.04885233400006],[120.75392864600008,15.044070359000045],[120.75709962700012,15.037779406000027],[120.7700526530001,15.025935123000068],[120.77875660900008,15.024740337000026],[120.790425378,15.025637713000037],[120.80515159300012,15.007630928000026],[120.82268065300002,15.007623494000029],[120.84699285500005,15.001670387000047],[120.8532462180001,15.00532078200007],[120.8641296300001,15.000108526000076],[120.8744762440001,14.985496926000053],[120.87376274100006,14.981939552000028],[120.8749196650001,14.981083306000073],[120.87973441200006,14.98237864500004],[120.88062141300009,14.984907904000067],[120.87911808800004,14.990604713000039],[120.88530721400002,14.991554181000026],[120.8841164480001,14.99523928900004],[120.88097736100008,14.996879639000042],[120.88304255000003,14.998165956000037],[120.88544997000008,14.99625418200003],[120.88500152900008,14.998236763000023],[120.88192144700008,14.999841710000055],[120.87675257400008,14.999794505000068],[120.8810363660001,15.003039802000046],[120.8781569030001,15.007429804000026],[120.88006867800004,15.010285665000026],[120.87527743900012,15.009247170000037],[120.87985681200007,15.01334577800003]]]}},{"type":"Feature","properties":{"name":"San Simon","filterValue":"San Simon","psgcCode":"0305418000","scope":"pampanga","sourceId":"30758251B91508590625378"},"geometry":{"type":"Polygon","coordinates":[[[120.87263100700011,14.981723423000062],[120.87376274100006,14.981939552000028],[120.8744762440001,14.985496926000053],[120.8641296300001,15.000108526000076],[120.8532462180001,15.00532078200007],[120.84699285500005,15.001670387000047],[120.82268065300002,15.007623494000029],[120.80515159300012,15.007630928000026],[120.790425378,15.025637713000037],[120.77875660900008,15.024740337000026],[120.7700526530001,15.025935123000068],[120.75709962700012,15.037779406000027],[120.74807390400008,15.03346964900004],[120.74757309800009,15.028624406000063],[120.74497712700008,15.030840902000023],[120.73576472200011,15.030960080000057],[120.7357930500001,15.027492791000043],[120.73321257100008,15.024745304000078],[120.73099890800006,15.025054683000064],[120.72781443400004,15.031172927000057],[120.72689880300004,15.015739069000062],[120.7255776830001,15.012498311000058],[120.72383444900004,15.011899907000043],[120.73179323300008,15.012683540000069],[120.73033934500006,15.005687660000035],[120.74098578300004,15.004412459000037],[120.7449592590001,14.998602832000074],[120.74885739000001,14.99214700400006],[120.74578309900005,14.992063146000078],[120.74705650900012,14.988236527000026],[120.74578730600001,14.986219016000064],[120.7485921660001,14.983205191000025],[120.74813139200012,14.978946113000063],[120.75217643000008,14.978606654000032],[120.755535871,14.980695524000055],[120.75682030200005,14.978706421000027],[120.76137505800011,14.982579135000037],[120.76295798600006,14.979870382000058],[120.76655554900003,14.980268230000036],[120.76884105900001,14.982536811000045],[120.77925948900008,14.983704528000032],[120.78243878600006,14.983213807000027],[120.78153266100003,14.980946154000037],[120.78337716500005,14.980548071000044],[120.78885717800006,14.98202929000007],[120.79387747700002,14.980981576000033],[120.79894143000001,14.981811017000041],[120.81889166100007,14.977838432000055],[120.82319704800011,14.978747055000042],[120.83559215500009,14.977842894000048],[120.83754826200004,14.979708320000043],[120.84081275800008,14.979112420000035],[120.84339127500004,14.981569808000074],[120.86452817000009,14.984858315000054],[120.87263100700011,14.981723423000062]]]}},{"type":"Feature","properties":{"name":"Santa Ana","filterValue":"Santa Ana","psgcCode":"0305419000","scope":"pampanga","sourceId":"30758251B20191703245220"},"geometry":{"type":"Polygon","coordinates":[[[120.6929473140001,15.150559529000077],[120.69413509100002,15.146886626000025],[120.69770718600012,15.144795964000025],[120.71059058800006,15.129356492000056],[120.71172526200007,15.130114544000037],[120.71195572300007,15.128027098000075],[120.71654211000009,15.124872027000038],[120.73900795700001,15.098890494000045],[120.74519520100012,15.093774784000061],[120.7548920800001,15.091963127000042],[120.75570634600001,15.090731730000073],[120.76147805000005,15.092007193000029],[120.76069916300003,15.086776318000034],[120.76247672900001,15.083221819000073],[120.75901677500008,15.07940880800004],[120.760322685,15.078267205000031],[120.75898283900005,15.075916177000067],[120.76058087500007,15.074315573000035],[120.76296429800004,15.075414756000043],[120.77455712100004,15.063991067000075],[120.7969363840001,15.078988135000031],[120.7947554650001,15.103920947000063],[120.79191206000007,15.104579345000047],[120.78974277200007,15.114062808000028],[120.78558225300003,15.112461848000066],[120.78121043100009,15.117150282000068],[120.77841169300007,15.11818317600006],[120.74447778700005,15.129786111000044],[120.72237660200005,15.135327425000071],[120.71611759500001,15.141268335000063],[120.71334888500007,15.141869093000025],[120.70729403700011,15.148413627000025],[120.69979836400012,15.151780117000044],[120.69914621400005,15.150202297000021],[120.6929473140001,15.150559529000077]]]}},{"type":"Feature","properties":{"name":"Santa Rita","filterValue":"Santa Rita","psgcCode":"0305420000","scope":"pampanga","sourceId":"30758251B30766672962304"},"geometry":{"type":"Polygon","coordinates":[[[120.58580701400001,15.050473787000044],[120.57127124300007,15.04320408500007],[120.57113001500011,15.024036959000057],[120.56694494300007,15.020855206000022],[120.5731616270001,15.014551331000064],[120.57360419300005,15.010522453000021],[120.57619854600011,15.00766866400005],[120.58575701300003,15.006527265000045],[120.58449740900005,15.005021068000076],[120.59587661800003,14.99679446600004],[120.59418657900005,14.994514228000071],[120.59838084600005,14.992143295000062],[120.60341739800003,14.986602099000038],[120.60885161400006,14.98945834400007],[120.61687574200005,14.997143837000067],[120.6194321810001,14.99506384700004],[120.62284873300007,15.000767058000065],[120.62478531800002,14.999497288000043],[120.62533876200007,15.000655600000073],[120.63008719900006,15.007831745000033],[120.6256765500001,15.013161533000073],[120.6241628030001,15.012350854000033],[120.62259883700006,15.01475419600007],[120.61982243900002,15.01489050500004],[120.61822977600002,15.012171500000022],[120.61220871600005,15.016679289000024],[120.60327750700003,15.01902401600006],[120.59305677900011,15.044932896000034],[120.58580701400001,15.050473787000044]]]}},{"type":"Feature","properties":{"name":"Santo Tomas","filterValue":"Santo Tomas","psgcCode":"0305421000","scope":"pampanga","sourceId":"30758251B57632773357139"},"geometry":{"type":"Polygon","coordinates":[[[120.69342931900007,14.996453651000024],[120.70169529200007,14.99652418200003],[120.70169241300005,14.991355673000044],[120.70435403500005,14.988824226000077],[120.70061479100002,14.985754375000056],[120.70034572300005,14.98347314700004],[120.70623036100005,14.975487498000064],[120.71135391200005,14.980532381000046],[120.71398819600006,14.979973907000044],[120.71584992800001,14.983454379000023],[120.72041951200003,14.981285865000075],[120.7268619990001,14.982897166000043],[120.73057606600003,14.989990625000075],[120.73022506600012,14.999279874000024],[120.73144948400011,15.002814360000059],[120.73033934500006,15.005687660000035],[120.73179323300008,15.012683540000069],[120.72383444900004,15.011899907000043],[120.7255776830001,15.012498311000058],[120.72689880300004,15.015739069000062],[120.72781443400004,15.031172927000057],[120.72699065600011,15.031077183000036],[120.72478073500008,15.029825352000046],[120.72478897100007,15.025586696000062],[120.72321365900007,15.023273371000073],[120.71721408200005,15.019803384000056],[120.71737908500006,15.016988514000047],[120.71468546800008,15.016628603000072],[120.71278879600004,15.018328181000072],[120.70760671500011,15.019328715000029],[120.70623372800003,15.016385741000022],[120.70219717600003,15.013743270000077],[120.70212690300002,15.011743743000068],[120.70071481200011,15.012336223000034],[120.69840240300005,15.005187977000048],[120.69519187300011,15.005025381000053],[120.69634489600003,15.00128275700007],[120.69342931900007,14.996453651000024]]]}},{"type":"Feature","properties":{"name":"Sasmuan","filterValue":"Sasmuan","psgcCode":"0305422000","scope":"pampanga","sourceId":"30758251B19069500410191"},"geometry":{"type":"Polygon","coordinates":[[[120.61486840100008,14.95778505100003],[120.61364117800008,14.955326613000068],[120.61597210500008,14.952103214000033],[120.61087976500005,14.943881972000042],[120.61365323000007,14.939955018000035],[120.61334560400007,14.933704142000067],[120.61503191700001,14.93191818400004],[120.60808137200002,14.913235189000034],[120.6059499700001,14.911289552000028],[120.60744487300008,14.90597067300007],[120.60390512200001,14.899383009000076],[120.60836494800003,14.893497656000022],[120.6064427440001,14.890175328000055],[120.60666667300006,14.881398525000066],[120.61379932800003,14.875019182000074],[120.61365109500002,14.871607724000057],[120.6160373680001,14.871323951000022],[120.6049573250001,14.865429213000027],[120.60124248000011,14.854297576000022],[120.60678545200005,14.851741865000065],[120.61532893000003,14.844606653000028],[120.61262714600002,14.839651644000071],[120.60543977600003,14.840402719000053],[120.60242932000006,14.836186627000075],[120.60409050700002,14.831954212000028],[120.60021874600011,14.830295621000062],[120.60036838600001,14.828930899000056],[120.60213311100006,14.830351274000066],[120.6026606050001,14.829490139000029],[120.5987110100001,14.826862192000021],[120.60019983300003,14.824906081000051],[120.59914675400012,14.82224571100005],[120.60062366200009,14.820035672000074],[120.60241893800003,14.821130118000042],[120.60390761500003,14.820006048000039],[120.60145931900001,14.817363894000039],[120.60261663000006,14.815415415000075],[120.60727998800007,14.81155478900007],[120.61003923300007,14.812642155000049],[120.60899209400009,14.809351252000056],[120.61308602300005,14.807059781000078],[120.6112941770001,14.804775471000028],[120.61665767000011,14.804777288000025],[120.61845890300003,14.812555300000042],[120.62046547600005,14.812593499000059],[120.62712380800008,14.833638680000035],[120.62572993700007,14.850648055000022],[120.63773655400007,14.870424472000025],[120.63391375700007,14.876793500000076],[120.623811638,14.880153972000073],[120.62355068400007,14.892386471000066],[120.63070950600002,14.899565345000042],[120.62639657800003,14.90730641500005],[120.62962330300002,14.908323346000032],[120.6308139250001,14.906297125000037],[120.63300466900012,14.906002716000046],[120.63736451000011,14.909063697000022],[120.63819578000005,14.91190387100005],[120.64201442900003,14.911102907000043],[120.642668189,14.912830391000057],[120.64552892800009,14.913371583000071],[120.64865918100008,14.910754380000071],[120.65182190500002,14.915131538000026],[120.6518365180001,14.917687046000026],[120.64961256900006,14.917722909000076],[120.65140703600002,14.920592186000022],[120.64994660600007,14.923904539000034],[120.64134396100008,14.923978461000047],[120.63908010700004,14.920910708000065],[120.63620879500002,14.923088621000034],[120.637501842,14.931916197000078],[120.6424361710001,14.934458801000062],[120.63428127000009,14.942405783000027],[120.6259889910001,14.951155074000042],[120.62371716500002,14.956247094000048],[120.62077638700009,14.958893371000045],[120.62086731700003,14.960825138000075],[120.61486840100008,14.95778505100003]]]}}]}
